{
  "links" : {
    "next" : "https://api.nasa.gov/neo/rest/v1/feed?start_date=2011-11-23&end_date=2011-11-23&detailed=true&api_key=t0TVs3DtDT2H8Oy2Zy8m2eVrNsAVKAexjcZXUckd",
    "prev" : "https://api.nasa.gov/neo/rest/v1/feed?start_date=2011-11-21&end_date=2011-11-21&detailed=true&api_key=t0TVs3DtDT2H8Oy2Zy8m2eVrNsAVKAexjcZXUckd",
    "self" : "https://api.nasa.gov/neo/rest/v1/feed?start_date=2011-11-22&end_date=2011-11-22&detailed=true&api_key=t0TVs3DtDT2H8Oy2Zy8m2eVrNsAVKAexjcZXUckd"
  },
  "element_count" : 6,
  "near_earth_objects" : {
    "2011-11-22" : [ {
      "links" : {
        "self" : "https://api.nasa.gov/neo/rest/v1/neo/3588899?api_key=t0TVs3DtDT2H8Oy2Zy8m2eVrNsAVKAexjcZXUckd"
      },
      "neo_reference_id" : "3588899",
      "name" : "(2011 WC39)",
      "nasa_jpl_url" : "http://ssd.jpl.nasa.gov/sbdb.cgi?sstr=3588899",
      "absolute_magnitude_h" : 23.1,
      "estimated_diameter" : {
        "kilometers" : {
          "estimated_diameter_min" : 0.063760979,
          "estimated_diameter_max" : 0.1425738833
        },
        "meters" : {
          "estimated_diameter_min" : 63.7609789875,
          "estimated_diameter_max" : 142.5738833281
        },
        "miles" : {
          "estimated_diameter_min" : 0.0396192233,
          "estimated_diameter_max" : 0.0885912765
        },
        "feet" : {
          "estimated_diameter_min" : 209.1895703015,
          "estimated_diameter_max" : 467.7620993781
        }
      },
      "is_potentially_hazardous_asteroid" : false,
      "close_approach_data" : [ {
        "close_approach_date" : "2011-11-22",
        "epoch_date_close_approach" : 1321948800000,
        "relative_velocity" : {
          "kilometers_per_second" : "5.5106613152",
          "kilometers_per_hour" : "19838.3807348711",
          "miles_per_hour" : "12326.7982960648"
        },
        "miss_distance" : {
          "astronomical" : "0.093902005",
          "lunar" : "36.5278816223",
          "kilometers" : "14047540",
          "miles" : "8728737"
        },
        "orbiting_body" : "Earth"
      } ],
      "orbital_data" : {
        "orbit_id" : "12",
        "orbit_determination_date" : "2017-04-06 08:51:55",
        "orbit_uncertainty" : "6",
        "minimum_orbit_intersection" : ".0849925",
        "jupiter_tisserand_invariant" : "4.519",
        "epoch_osculation" : "2458000.5",
        "eccentricity" : ".2882201426249815",
        "semi_major_axis" : "1.482818640911473",
        "inclination" : "9.044946541254902",
        "ascending_node_longitude" : "74.49549330496345",
        "orbital_period" : "659.5238152034358",
        "perihelion_distance" : "1.055440440740987",
        "perihelion_argument" : "332.1305531221318",
        "aphelion_distance" : "1.910196841081959",
        "perihelion_time" : "2457851.786908649509",
        "mean_anomaly" : "81.17479862294718",
        "mean_motion" : ".5458483707505769",
        "equinox" : "J2000"
      }
    }, {
      "links" : {
        "self" : "https://api.nasa.gov/neo/rest/v1/neo/3614399?api_key=t0TVs3DtDT2H8Oy2Zy8m2eVrNsAVKAexjcZXUckd"
      },
      "neo_reference_id" : "3614399",
      "name" : "(2012 UW136)",
      "nasa_jpl_url" : "http://ssd.jpl.nasa.gov/sbdb.cgi?sstr=3614399",
      "absolute_magnitude_h" : 22.9,
      "estimated_diameter" : {
        "kilometers" : {
          "estimated_diameter_min" : 0.0699125232,
          "estimated_diameter_max" : 0.1563291544
        },
        "meters" : {
          "estimated_diameter_min" : 69.9125232246,
          "estimated_diameter_max" : 156.3291544087
        },
        "miles" : {
          "estimated_diameter_min" : 0.0434416145,
          "estimated_diameter_max" : 0.097138403
        },
        "feet" : {
          "estimated_diameter_min" : 229.3718026961,
          "estimated_diameter_max" : 512.8909429502
        }
      },
      "is_potentially_hazardous_asteroid" : false,
      "close_approach_data" : [ {
        "close_approach_date" : "2011-11-22",
        "epoch_date_close_approach" : 1321948800000,
        "relative_velocity" : {
          "kilometers_per_second" : "8.3975955025",
          "kilometers_per_hour" : "30231.3438091751",
          "miles_per_hour" : "18784.5813796511"
        },
        "miss_distance" : {
          "astronomical" : "0.2422727413",
          "lunar" : "94.2440948486",
          "kilometers" : "36243484",
          "miles" : "22520658"
        },
        "orbiting_body" : "Earth"
      } ],
      "orbital_data" : {
        "orbit_id" : "12",
        "orbit_determination_date" : "2017-04-06 08:48:20",
        "orbit_uncertainty" : "2",
        "minimum_orbit_intersection" : ".139251",
        "jupiter_tisserand_invariant" : "5.948",
        "epoch_osculation" : "2458000.5",
        "eccentricity" : ".170681173532458",
        "semi_major_axis" : "1.01960326385915",
        "inclination" : "14.42057832069896",
        "ascending_node_longitude" : "218.9559683310631",
        "orbital_period" : "376.0497050701711",
        "perihelion_distance" : ".8455761822461461",
        "perihelion_argument" : "25.54445134560533",
        "aphelion_distance" : "1.193630345472154",
        "perihelion_time" : "2457956.860593804752",
        "mean_anomaly" : "41.77688751905206",
        "mean_motion" : ".9573202561954511",
        "equinox" : "J2000"
      }
    }, {
      "links" : {
        "self" : "https://api.nasa.gov/neo/rest/v1/neo/3694776?api_key=t0TVs3DtDT2H8Oy2Zy8m2eVrNsAVKAexjcZXUckd"
      },
      "neo_reference_id" : "3694776",
      "name" : "(2014 UC115)",
      "nasa_jpl_url" : "http://ssd.jpl.nasa.gov/sbdb.cgi?sstr=3694776",
      "absolute_magnitude_h" : 23.7,
      "estimated_diameter" : {
        "kilometers" : {
          "estimated_diameter_min" : 0.0483676488,
          "estimated_diameter_max" : 0.1081533507
        },
        "meters" : {
          "estimated_diameter_min" : 48.3676488219,
          "estimated_diameter_max" : 108.1533506775
        },
        "miles" : {
          "estimated_diameter_min" : 0.0300542543,
          "estimated_diameter_max" : 0.0672033557
        },
        "feet" : {
          "estimated_diameter_min" : 158.6865169607,
          "estimated_diameter_max" : 354.8338390368
        }
      },
      "is_potentially_hazardous_asteroid" : false,
      "close_approach_data" : [ {
        "close_approach_date" : "2011-11-22",
        "epoch_date_close_approach" : 1321948800000,
        "relative_velocity" : {
          "kilometers_per_second" : "9.0951160381",
          "kilometers_per_hour" : "32742.417737002",
          "miles_per_hour" : "20344.8650655277"
        },
        "miss_distance" : {
          "astronomical" : "0.255916661",
          "lunar" : "99.5515823364",
          "kilometers" : "38284588",
          "miles" : "23788940"
        },
        "orbiting_body" : "Earth"
      } ],
      "orbital_data" : {
        "orbit_id" : "17",
        "orbit_determination_date" : "2017-04-06 08:37:51",
        "orbit_uncertainty" : "5",
        "minimum_orbit_intersection" : ".118432",
        "jupiter_tisserand_invariant" : "3.596",
        "epoch_osculation" : "2458000.5",
        "eccentricity" : ".4760629410243711",
        "semi_major_axis" : "2.09905743788838",
        "inclination" : "1.296947536574933",
        "ascending_node_longitude" : "174.0378033394637",
        "orbital_period" : "1110.797543927566",
        "perihelion_distance" : "1.099773980628157",
        "perihelion_argument" : "265.4091716903604",
        "aphelion_distance" : "3.098340895148604",
        "perihelion_time" : "2458115.990341158965",
        "mean_anomaly" : "322.5705664866518",
        "mean_motion" : ".3240914620022558",
        "equinox" : "J2000"
      }
    } ]
  }
}